[
  {
    "name": "Mesa",
    "fullAddress": "1919 West Main St, Mesa, AZ 85201",
    "address1": "1919 West Main St",
    "zip": "85201",
    "state": "AZ",
    "city": "Mesa"
  },
  {
    "name": "Arcadia",
    "fullAddress": "1101 W. Huntington Dr, Arcadia, CA 91007",
    "address1": "1101 W. Huntington Dr",
    "zip": "91007",
    "state": "CA",
    "city": "Arcadia"
  },
  {
    "name": "San Francisco",
    "fullAddress": "3995 Alemany Boulevard, San Francisco, CA 94132",
    "address1": "3995 Alemany Boulevard",
    "zip": "94132",
    "state": "CA",
    "city": "San Francisco"
  },
  {
    "name": "Buena Park",
    "fullAddress": "5111 Beach Blvd, Buena Park, CA 90621",
    "address1": "5111 Beach Blvd",
    "zip": "90621",
    "state": "CA",
    "city": "Buena Park"
  },
  {
    "name": "Cerritos",
    "fullAddress": "20137 Pioneer Blvd, Lakewood, CA 90715",
    "address1": "20137 Pioneer Blvd",
    "zip": "90715",
    "state": "CA",
    "city": "Lakewood"
  },
  {
    "name": "Diamond Bar",
    "fullAddress": "2825 S. Diamond Bar Blvd, Diamond Bar, CA 91765",
    "address1": "2825 S. Diamond Bar Blvd",
    "zip": "91765",
    "state": "CA",
    "city": "Diamond Bar"
  },
  {
    "name": "Garden Grove",
    "fullAddress": "8911 Garden Grove Blvd, Garden Grove, CA 92844",
    "address1": "8911 Garden Grove Blvd",
    "zip": "92844",
    "state": "CA",
    "city": "Garden Grove"
  },
  {
    "name": "Irvine",
    "fullAddress": "2600 Alton Pkwy, Irvine, CA 92606",
    "address1": "2600 Alton Pkwy",
    "zip": "92606",
    "state": "CA",
    "city": "Irvine"
  },
  {
    "name": "Los Angeles - Madang Plaza",
    "fullAddress": "621 S. Western Ave, Los Angeles, CA 90005",
    "address1": "621 S. Western Ave",
    "zip": "90005",
    "state": "CA",
    "city": "Los Angeles"
  },
  {
    "name": "Los Angeles - City Center",
    "fullAddress": "3500 W 6th, Los Angeles, CA 90020",
    "address1": "3500 W 6th",
    "zip": "90020",
    "state": "CA",
    "city": "Los Angele"
  },
  {
    "name": "San Diego",
    "fullAddress": "9440 Mira Mesa Blvd, San Diego, CA 92126",
    "address1": "9440 Mira Mesa Blvd",
    "zip": "92126",
    "state": "CA",
    "city": "San Diego"
  },
  {
    "name": "San Diego - Balboa",
    "fullAddress": "7725 Balboa Ave, San Diego, CA 92111",
    "address1": "7725 Balboa Ave",
    "zip": "92111",
    "state": "CA",
    "city": "San Diego"
  },
  {
    "name": "San Jose - De Anza",
    "fullAddress": "1179 S De Anza Blvd, San Jose, CA 95129",
    "address1": "1179 S De Anza Blvd",
    "zip": "95129",
    "state": "CA",
    "city": "San Jose"
  },
  {
    "name": "San Jose - Oakland",
    "fullAddress": "1710 Oakland Rd, San Jose, CA 95131",
    "address1": "1710 Oakland Rd",
    "zip": "95131",
    "state": "CA",
    "city": "San Jose"
  },
  {
    "name": "Torrance",
    "fullAddress": "4340 PACIFIC COAST HWY, TORRANCE, CA 90505",
    "address1": "4340 PACIFIC COAST HWY",
    "zip": "90505",
    "state": "CA",
    "city": "TORRANCE"
  },
  {
    "name": "Los Angeles - Koreatown Plaza",
    "fullAddress": "928 S Western Ave, Los Angeles, CA 90006",
    "address1": "928 S Western Ave",
    "zip": "90006",
    "state": "CA",
    "city": "Los Angeles"
  },
  {
    "name": "Doraville",
    "fullAddress": "6035 Peachtree Rd, Doraville, GA 30360",
    "address1": "6035 Peachtree Rd",
    "zip": "30360",
    "state": "GA",
    "city": "Doraville"
  },
  {
    "name": "Duluth",
    "fullAddress": "2550 Pleasant Hill Rd, Duluth, GA 30096",
    "address1": "2550 Pleasant Hill Rd",
    "zip": "30096",
    "state": "GA",
    "city": "Duluth"
  },
  {
    "name": "Johns Creek",
    "fullAddress": "10820 Abbotts Bridge Rd, Johns Creek, GA 30097",
    "address1": "10820 Abbotts Bridge Rd",
    "zip": "30097",
    "state": "GA",
    "city": "Johns Creek"
  },
  {
    "name": "Riverdale",
    "fullAddress": "6335 Hwy, Riverdale, GA 30274",
    "address1": "6335 Hwy",
    "zip": "30274",
    "state": "GA",
    "city": "Riverdale"
  },
  {
    "name": "Suwanee",
    "fullAddress": "2700 Lawrenceville Suwanee Rd NE, Suwanee, GA 30024",
    "address1": "2700 Lawrenceville Suwanee Rd NE",
    "zip": "30024",
    "state": "GA",
    "city": "Suwanee"
  },
  {
    "name": "Kakaâ€™ako",
    "fullAddress": "458 Keawe St, Honolulu, HI 96813",
    "address1": "458 Keawe St",
    "zip": "96813",
    "state": "HI",
    "city": "Honolulu"
  },
  {
    "name": "Chicago",
    "fullAddress": "711 West Jackson Blvd, Chicago, IL 60661",
    "address1": "711 West Jackson Blvd",
    "zip": "60661",
    "state": "IL",
    "city": "Chicago"
  },
  {
    "name": "Glenview",
    "fullAddress": "3385 N. Milwaukee Ave, Northbrook, IL 60062",
    "address1": "3385 N. Milwaukee Ave",
    "zip": "60062",
    "state": "IL",
    "city": "Northbrook"
  },
  {
    "name": "Niles",
    "fullAddress": "801 Civic Center Dr, Niles, IL 60714",
    "address1": "801 Civic Center Dr",
    "zip": "60714",
    "state": "IL",
    "city": "Niles"
  },
  {
    "name": "Naperville",
    "fullAddress": "1295 E. Ogden Ave, Naperville, IL 60563",
    "address1": "1295 E. Ogden Ave",
    "zip": "60563",
    "state": "IL",
    "city": "Naperville"
  },
  {
    "name": "Schaumburg",
    "fullAddress": "34 East Golf Road, Schaumburg, IL 60173",
    "address1": "34 East Golf Road",
    "zip": "60173",
    "state": "IL",
    "city": "Schaumburg"
  },
  {
    "name": "Burlington",
    "fullAddress": "3 Old Concord Rd, Burlington, MA 01803",
    "address1": "3 Old Concord Rd",
    "zip": "01803",
    "state": "MA",
    "city": "Burlington"
  },
  {
    "name": "Cambridge",
    "fullAddress": "581 Massachusetts Ave, Cambridge, MA 02139",
    "address1": "581 Massachusetts Ave",
    "zip": "02139",
    "state": "MA",
    "city": "Cambridge"
  },
  {
    "name": "Catonsville",
    "fullAddress": "800 North Rolling Rd, Catonsville, MD 21228",
    "address1": "800 North Rolling Rd",
    "zip": "21228",
    "state": "MD",
    "city": "Catonsville"
  },
  {
    "name": "Ellicott City",
    "fullAddress": "3301 North Ridge Rd, Ellicott City, MD 21043",
    "address1": "3301 North Ridge",
    "zip": "21043",
    "state": "MD",
    "city": "Ellicott City"
  },
  {
    "name": "Frederick",
    "fullAddress": "1063 W. Patrick St, Frederick, MD 21702",
    "address1": "1063 W. Patrick St",
    "zip": "21702",
    "state": "MD",
    "city": "Frederick"
  },
  {
    "name": "Gaithersburg",
    "fullAddress": "9639 Lost Knife Rd, Gaithersburg, MD 20877",
    "address1": "9639 Lost Knife Rd",
    "zip": "20877",
    "state": "MD",
    "city": "Gaithersburg"
  },
  {
    "name": "Wheaton",
    "fullAddress": "12015 Georgia Ave, Wheaton, MD 20902",
    "address1": "12015 Georgia Ave",
    "zip": "20902",
    "state": "MD",
    "city": "Wheaton"
  },
  {
    "name": "Troy",
    "fullAddress": "2963 E. Big Beaver Rd, Troy, MI 48083",
    "address1": "2963 E. Big Beaver Rd",
    "zip": "48083",
    "state": "MI",
    "city": "Troy"
  },
  {
    "name": "Cary",
    "fullAddress": "1961 High House Rd, Cary, NC 27519",
    "address1": "1961 High House Rd",
    "zip": "27519",
    "state": "NC",
    "city": "Cary"
  },
  {
    "name": "Little Ferry",
    "fullAddress": "260 Bergen Turnpike, Little Ferry, NJ 07643",
    "address1": "260 Bergen Turnpike",
    "zip": "07643",
    "state": "NJ",
    "city": "Little Ferry"
  },
  {
    "name": "Paramus",
    "fullAddress": "60 State Route 17 North, Paramus, NJ 07652",
    "address1": "60 State Route 17 North",
    "zip": "07652",
    "state": "NJ",
    "city": "Paramus"
  },
  {
    "name": "Cherry Hill",
    "fullAddress": "1720 Rt. 70 East, Cherry Hill, NJ 08003",
    "address1": "1720 Rt. 70 East",
    "zip": "08003",
    "state": "NJ",
    "city": "Cherry Hill"
  },
  {
    "name": "Edison",
    "fullAddress": "1761 Route 27 (Lincoln Highway), Edison, NJ 08817",
    "address1": "1761 Route 27 (Lincoln Highway)",
    "zip": "08817",
    "state": "NJ",
    "city": "Edison"
  },
  {
    "name": "Fort Lee",
    "fullAddress": "112 Linwood Plaza, Fort Lee, NJ 07024",
    "address1": "112 Linwood Plaza",
    "zip": "07024",
    "state": "NJ",
    "city": "Fort Lee"
  },
  {
    "name": "Fort Lee - H Mart Fresh",
    "fullAddress": "1379 16th St, Fort Lee, NJ 07024",
    "address1": "1379 16th St",
    "zip": "07024",
    "state": "NJ",
    "city": "Fort Lee"
  },
  {
    "name": "Leonia",
    "fullAddress": "315 Broad Avenue, Leonia, NJ 07605",
    "address1": "315 Broad Avenue",
    "zip": "07605",
    "state": "NJ",
    "city": "Leonia"
  },
  {
    "name": "Ridgefield",
    "fullAddress": "321 Broad Ave, Ridgefield, NJ 07657",
    "address1": "321 Broad Ave",
    "zip": "07657",
    "state": "NJ",
    "city": "Ridgefield"
  },
  {
    "name": "Flushing - Northern 144",
    "fullAddress": "144-74 Northern Blvd, Flushing, NY 11354",
    "address1": "144-74 Northern Blvd",
    "zip": "11354",
    "state": "NY",
    "city": "Flushing"
  },
  {
    "name": "Bayside",
    "fullAddress": "46-40 Francis Lewis Blvd, Bayside, NY 11361",
    "address1": "46-40 Francis Lewis Blvd",
    "zip": "11361",
    "state": "NY",
    "city": "Bayside"
  },
  {
    "name": "Flushing - Goowha",
    "fullAddress": "142-06 41st Ave, Flushing, NY 11355",
    "address1": "142-06 41st Ave",
    "zip": "11355",
    "state": "NY",
    "city": "Flushing"
  },
  {
    "name": "Flushing - Northern 156",
    "fullAddress": "156-40 Northern Blvd, Flushing, NY 11354",
    "address1": "156-40 Northern Blvd",
    "zip": "11354",
    "state": "NY",
    "city": "Flushing"
  },
  {
    "name": "Flushing - Union",
    "fullAddress": "29-02 Union St, Flushing, NY 11354",
    "address1": "29-02 Union St",
    "zip": "11354",
    "state": "NY",
    "city": "Flushing"
  },
  {
    "name": "Great Neck",
    "fullAddress": "495 Great Neck Rd, Great Neck , NY 11021",
    "address1": "495 Great Neck Rd",
    "zip": "11021",
    "state": "NY",
    "city": "Great Neck"
  },
  {
    "name": "Hartsdale",
    "fullAddress": "371 North Central Ave, Hartsdale, NY 10530",
    "address1": "371 North Central Ave",
    "zip": "10530",
    "state": "NY",
    "city": "Hartsdale"
  },
  {
    "name": "Jericho",
    "fullAddress": "336 N. Broadway, Jericho, NY 11753",
    "address1": "336 N. Broadway",
    "zip": "11753",
    "state": "NY",
    "city": "Jericho"
  },
  {
    "name": "Williston Park",
    "fullAddress": "400 Hillside Ave, Williston Park, NY 11596",
    "address1": "400 Hillside Ave",
    "zip": "11596",
    "state": "NY",
    "city": "Williston Park"
  },
  {
    "name": "Yonkers",
    "fullAddress": "1789 Central Park Ave, Yonkers, NY 10710-2839",
    "address1": "1789 Central Park Ave",
    "zip": "10710-2839",
    "state": "NY",
    "city": "Yonkers"
  },
  {
    "name": "Philadelphia",
    "fullAddress": "6201 N Front St, Philadelphia, PA 19120",
    "address1": "6201 N Front St",
    "zip": "19120",
    "state": "PA",
    "city": "Philadelphia"
  },
  {
    "name": "Elkins Park",
    "fullAddress": "7320 Old York Road, Elkins Park, PA 19027",
    "address1": "7320 Old York Road",
    "zip": "19027",
    "state": "PA",
    "city": "Elkins Park"
  },
  {
    "name": "Levittown",
    "fullAddress": "1138 Bristol Oxford Valley Road, Levittown, PA 19057",
    "address1": "1138 Bristol Oxford Valley Road",
    "zip": "19057",
    "state": "PA",
    "city": "Levittown"
  },
  {
    "name": "Upper Darby",
    "fullAddress": "7050 Terminal Square, Upper Darby, PA 19082",
    "address1": "7050 Terminal Square",
    "zip": "19082",
    "state": "PA",
    "city": "Upper Darby"
  },
  {
    "name": "Katy",
    "fullAddress": "23119 Colonial Parkway, Katy, TX 77449",
    "address1": "23119 Colonial Parkway",
    "zip": "77449",
    "state": "TX",
    "city": "Katy"
  },
  {
    "name": "Austin",
    "fullAddress": "11301 Lakeline Boulevard, Austin, Tx 78717",
    "address1": "11301 Lakeline Boulevard",
    "zip": "78717",
    "state": "Tx",
    "city": "Austin"
  },
  {
    "name": "Carrollton",
    "fullAddress": "2625 Old Denton Rd, Carrollton, TX 75007",
    "address1": "2625 Old Denton Rd",
    "zip": "75007",
    "state": "TX",
    "city": "Carrollton"
  },
  {
    "name": "Houston",
    "fullAddress": "1302 Blalock Rd, Houston, TX 77055",
    "address1": "1302 Blalock Rd",
    "zip": "77055",
    "state": "TX",
    "city": "Houston"
  },
  {
    "name": "Houston - Bellaire",
    "fullAddress": "9896 Bellaire blvd, Houston, TX 77036",
    "address1": "9896 Bellaire blvd",
    "zip": "77036",
    "state": "TX",
    "city": "Houston"
  },
  {
    "name": "Plano",
    "fullAddress": "3320 K Ave, Plano, TX 75074",
    "address1": "3320 K Ave",
    "zip": "75074",
    "state": "TX",
    "city": "Plano"
  },
  {
    "name": "Annandale",
    "fullAddress": "7885 Heritage Drive, Annandale, VA 22003",
    "address1": "7885 Heritage Drive",
    "zip": "22003",
    "state": "VA",
    "city": "Annandale"
  },
  {
    "name": "Burke",
    "fullAddress": "9550 Burke Rd, Burke, VA 22015",
    "address1": "9550 Burke Rd",
    "zip": "22015",
    "state": "VA",
    "city": "Burke"
  },
  {
    "name": "Centreville",
    "fullAddress": "13818 Braddock Rd, Centreville, VA 20121",
    "address1": "13818 Braddock Rd",
    "zip": "20121",
    "state": "VA",
    "city": "Centreville"
  },
  {
    "name": "Falls Church",
    "fullAddress": "8103 Lee Highway, Falls Church, VA 22042",
    "address1": "8103 Lee Highway",
    "zip": "22042",
    "state": "VA",
    "city": "Falls Church"
  },
  {
    "name": "Fairfax",
    "fullAddress": "11200 Fairfax Blvd, Fairfax, VA 22030",
    "address1": "11200 Fairfax Blvd",
    "zip": "22030",
    "state": "VA",
    "city": "Fairfax"
  },
  {
    "name": "Manassas",
    "fullAddress": "8819 Centreville Rd, Manassas, VA 20110",
    "address1": "8819 Centreville Rd",
    "zip": "20110",
    "state": "VA",
    "city": "Manassas"
  },
  {
    "name": "Herndon",
    "fullAddress": "1228 Elden St, Herndon, VA 20170",
    "address1": "1228 Elden St",
    "zip": "20170",
    "state": "VA",
    "city": "Herndon"
  }
]
