[
  {
    "name": "Anaheim",
    "fullAddress": "651 N. Euclid St, Anaheim, CA 92801",
    "address1": "651 N. Euclid St",
    "zip": "92801",
    "state": "CA",
    "city": "Anaheim"
  },
  {
    "name": "Las Vegas II",
    "fullAddress": "3768 S. Maryland Parkway, Las Vegas, NV 89119",
    "address1": "3768 S. Maryland Parkway",
    "zip": "89119",
    "state": "NV",
    "city": "Las Vegas"
  },
  {
    "name": "Corona",
    "fullAddress": "430 N. McKinley St, Corona, CA 92879",
    "address1": "430 N. McKinley St",
    "zip": "92879",
    "state": "CA",
    "city": "Corona"
  },
  {
    "name": "Rancho Cucamonga",
    "fullAddress": "9775 Baseline Road, Rancho Cucamonga, CA 91730",
    "address1": "9775 Baseline Road",
    "zip": "91730",
    "state": "CA",
    "city": "Rancho Cucamonga"
  },
  {
    "name": "Artesia",
    "fullAddress": "17713 Pioneer Blvd, Artesia, CA 90701",
    "address1": "17713 Pioneer Blvd",
    "zip": "90701",
    "state": "CA",
    "city": "Artesia"
  },
  {
    "name": "Las Vegas I",
    "fullAddress": "4155 W. Spring Mountain Rd, Las Vegas, NV 89102",
    "address1": "4155 W. Spring Mountain Rd",
    "zip": "89102",
    "state": "NV",
    "city": "Las Vegas"
  },
  {
    "name": "Chino Hills",
    "fullAddress": "2959 Chino Ave, Chino Hills, CA 91709",
    "address1": "2959 Chino Ave",
    "zip": "91709",
    "state": "CA",
    "city": "Chino Hills"
  },
  {
    "name": "Hacienda Heights",
    "fullAddress": "1625 Azusa Ave, Hacienda Heights, CA 91745",
    "address1": "1625 Azusa Ave",
    "zip": "91745",
    "state": "CA",
    "city": "Hacienda Heights"
  },
  {
    "name": "San Gabriel",
    "fullAddress": "140 W. Valley Blvd, San Gabriel, CA 91776",
    "address1": "140 W. Valley Blvd",
    "zip": "91776",
    "state": "CA",
    "city": "San Gabriel"
  },
  {
    "name": "Arcadia",
    "fullAddress": "1300 S. Golden West Ave, Arcadia, CA 91007",
    "address1": "1300 S. Golden West Ave",
    "zip": "91007",
    "state": "CA",
    "city": "Arcadia"
  },
  {
    "name": "Rowland Heights",
    "fullAddress": "1015 S. Nogales St, Rowlands Heights, CA 91748",
    "address1": "1015 S. Nogales St",
    "zip": "91748",
    "state": "CA",
    "city": "Rowlands Heights"
  },
  {
    "name": "San Diego I - Clairemont Mesa",
    "fullAddress": "7330 Clairemont Mesa Boulevard, San Diego, CA 92111",
    "address1": "7330 Clairemont Mesa Boulevard",
    "zip": "92111",
    "state": "CA",
    "city": "San Diego"
  },
  {
    "name": "Irvine II - Walnut",
    "fullAddress": "5402 Walnut Ave, Irvine, CA 92604",
    "address1": "5402 Walnut Ave",
    "zip": "92604",
    "state": "CA",
    "city": "Irvine"
  },
  {
    "name": "Irvine I - Culver",
    "fullAddress": "15333 Culver Dr, Irvine, CA 92604",
    "address1": "15333 Culver Dr",
    "zip": "92604",
    "state": "CA",
    "city": "Irvine"
  },
  {
    "name": "Van Nuys",
    "fullAddress": "6450 Sepulveda Blvd, Van Nuys, CA 91411",
    "address1": "6450 Sepulveda Blvd",
    "zip": "91411",
    "state": "CA",
    "city": "Van Nuys"
  },
  {
    "name": "Fremont - Warm Springs",
    "fullAddress": "46551 Mission Boulevard, Fremont, CA 94539",
    "address1": "46551 Mission Boulevard",
    "zip": "94539",
    "state": "CA",
    "city": "Fremont"
  },
  {
    "name": "Beaverton",
    "fullAddress": "8155 SW Hall Blvd, Beaverton, OR 97008",
    "address1": "8155 SW Hall Blvd",
    "zip": "97008",
    "state": "OR",
    "city": "Beaverton"
  },
  {
    "name": "Edmonds",
    "fullAddress": "22511 Highway 99, Edmonds, WA 98026",
    "address1": "22511 Highway 99",
    "zip": "98026",
    "state": "WA",
    "city": "Edmonds"
  },
  {
    "name": "Kent",
    "fullAddress": "18230 E. Valley Highway, Kent, WA 98032",
    "address1": "18230 E. Valley Highway",
    "zip": "98032",
    "state": "WA",
    "city": "Kent"
  },
  {
    "name": "Pleasanton II - Stoneridge",
    "fullAddress": "2701 Stoneridge Drive, Pleasanton, CA 94588",
    "address1": "2701 Stoneridge Drive",
    "zip": "94588",
    "state": "CA",
    "city": "Pleasanton"
  },
  {
    "name": "Folsom",
    "fullAddress": "25000 Blue Ravine Rd, Folsom, CA 95630",
    "address1": "25000 Blue Ravine Rd",
    "zip": "95630",
    "state": "CA",
    "city": "Folsom"
  },
  {
    "name": "Newark",
    "fullAddress": "35219 Newark Blvd, Newark, CA 94560",
    "address1": "35219 Newark Blvd",
    "zip": "94560",
    "state": "CA",
    "city": "Newark"
  },
  {
    "name": "Foster City",
    "fullAddress": "1070 Foster City Blvd, Foster City, CA 94404",
    "address1": "1070 Foster City Blvd",
    "zip": "94404",
    "state": "CA",
    "city": "Foster City"
  },
  {
    "name": "Richmond",
    "fullAddress": "3288 Pierce St, Richmond, CA 94804",
    "address1": "3288 Pierce St",
    "zip": "94804",
    "state": "CA",
    "city": "Richmond"
  },
  {
    "name": "Cupertino De Anza",
    "fullAddress": "10425 S De Anza Blvd, Cupertino, CA 95014",
    "address1": "10425 S De Anza Blvd",
    "zip": "95014",
    "state": "CA",
    "city": "Cupertino"
  },
  {
    "name": "Sacramento",
    "fullAddress": "4220 Florin Rd, Sacramento, CA 95823",
    "address1": "4220 Florin Rd",
    "zip": "95823",
    "state": "CA",
    "city": "Sacramento"
  },
  {
    "name": "Pleasanton I - Rosewood",
    "fullAddress": "4299 Rosewood Dr, Pleasanton, CA 94588",
    "address1": "4299 Rosewood Dr",
    "zip": "94588",
    "state": "CA",
    "city": "Pleasanton"
  },
  {
    "name": "Concord",
    "fullAddress": "1795 Willow Pass Road, Concord, CA 94520",
    "address1": "1795 Willow Pass Road",
    "zip": "94520",
    "state": "CA",
    "city": "Concord"
  },
  {
    "name": "Mountain View",
    "fullAddress": "1350 Grant Road, Mountain View, CA 94040",
    "address1": "1350 Grant Road",
    "zip": "94040",
    "state": "CA",
    "city": "Mountain View"
  },
  {
    "name": "Dublin",
    "fullAddress": "7333 Regional St, Dublin, CA 94568",
    "address1": "7333 Regional St",
    "zip": "94568",
    "state": "CA",
    "city": "Dublin"
  },
  {
    "name": "Daly City",
    "fullAddress": "250 Skyline Plaza, Daly City, CA 94015",
    "address1": "250 Skyline Plaza",
    "zip": "94015",
    "state": "CA",
    "city": "Daly City"
  },
  {
    "name": "Cupertino",
    "fullAddress": "10983 N. Wolfe. Rd, Cupertino, CA 95014",
    "address1": "10983 N. Wolfe. Rd",
    "zip": "95014",
    "state": "CA",
    "city": "Cupertino"
  },
  {
    "name": "Milpitas",
    "fullAddress": "338 Barber Lane, Milpitas, CA 95035",
    "address1": "338 Barber Lane",
    "zip": "95035",
    "state": "CA",
    "city": "Milpitas"
  },
  {
    "name": "Fremont",
    "fullAddress": "34444 Fremont Blvd, Fremont, CA 94555",
    "address1": "34444 Fremont Blvd",
    "zip": "94555",
    "state": "CA",
    "city": "Fremont"
  },
  {
    "name": "San Jose",
    "fullAddress": "1688 Hostetter Rd, San Jose, CA 95131",
    "address1": "1688 Hostetter Rd",
    "zip": "95131",
    "state": "CA",
    "city": "San Jose"
  },
  {
    "name": "Chandler",
    "fullAddress": "1920 West Chandler Boulevard, Chandler, AZ 85223",
    "address1": "1920 West Chandler Boulevard",
    "zip": "85223",
    "state": "AZ",
    "city": "Chandler"
  },
  {
    "name": "Chula Vista",
    "fullAddress": "505 Telegraph Canyon Rd, Chula Vista, CA 91910",
    "address1": "505 Telegraph Canyon Rd",
    "zip": "91910",
    "state": "CA",
    "city": "Chula Vista"
  },
  {
    "name": "San Diego II - Balboa",
    "fullAddress": "5950 Balboa Ave, San Diego, CA 92111",
    "address1": "5950 Balboa Ave",
    "zip": "92111",
    "state": "CA",
    "city": "San Diego"
  },
  {
    "name": "Cravings By 99 Ranch",
    "fullAddress": "4024 Grand Ave, Chino, CA 91710",
    "address1": "4024 Grand Ave",
    "zip": "91710",
    "state": "CA",
    "city": "Chino"
  },
  {
    "name": "Alhambra",
    "fullAddress": "345 E. Main St, Alhambra, CA 91801",
    "address1": "345 E. Main St",
    "zip": "91801",
    "state": "CA",
    "city": "Alhambra"
  },
  {
    "name": "Frisco",
    "fullAddress": "9292 Warren Pkwy, Frisco, TX 75035",
    "address1": "9292 Warren Pkwy",
    "zip": "75035",
    "state": "TX",
    "city": "Frisco"
  },
  {
    "name": "Austin",
    "fullAddress": "6929 Airport Blvd, Austin, TX 78752",
    "address1": "6929 Airport Blvd",
    "zip": "78752",
    "state": "TX",
    "city": "Austin"
  },
  {
    "name": "Katy",
    "fullAddress": "569 S. Mason Rd, Katy, TX 77450",
    "address1": "569 S. Mason Rd",
    "zip": "77450",
    "state": "TX",
    "city": "Katy"
  },
  {
    "name": "Carollton",
    "fullAddress": "2352 Old Denton Rd, Carrollton, TX 75006",
    "address1": "2352 Old Denton Rd",
    "zip": "75006",
    "state": "TX",
    "city": "Carrollton"
  },
  {
    "name": "Sugarland",
    "fullAddress": "3430 Hwy 6, Sugar Land, TX 77478",
    "address1": "3430 Hwy 6",
    "zip": "77478",
    "state": "TX",
    "city": "Sugar Land"
  },
  {
    "name": "Plano",
    "fullAddress": "131 W. Spring Creek Pkwy, Plano, TX 75023",
    "address1": "131 W. Spring Creek Pkwy",
    "zip": "75023",
    "state": "TX",
    "city": "Plano"
  },
  {
    "name": "Houston",
    "fullAddress": "1005 Blalock Rd, Houston, TX 77055",
    "address1": "1005 Blalock Rd",
    "zip": "77055",
    "state": "TX",
    "city": "Houston"
  },
  {
    "name": "Monterey Park",
    "fullAddress": "771 W. Garvey Ave, Monterey Park, CA 91754",
    "address1": "771 W. Garvey Ave",
    "zip": "91754",
    "state": "CA",
    "city": "Monterey Park"
  },
  {
    "name": "Gardena",
    "fullAddress": "1340 Artesia Blvd, Gardena, CA 90248",
    "address1": "1340 Artesia Blvd",
    "zip": "90248",
    "state": "CA",
    "city": "Gardena"
  },
  {
    "name": "Gaithersburg",
    "fullAddress": "110 Odendhal Ave, Gaithersburg, MD 20877",
    "address1": "110 Odendhal Ave",
    "zip": "20877",
    "state": "MD",
    "city": "Gaithersburg"
  },
  {
    "name": "Quincy",
    "fullAddress": "475 Hancock Street, Quincy, MA 02171",
    "address1": "475 Hancock Street",
    "zip": "02171",
    "state": "MA",
    "city": "Quincy"
  },
  {
    "name": "Hackensack",
    "fullAddress": "450 Hackensack Ave, Hackensack, NJ 07601",
    "address1": "450 Hackensack Ave",
    "zip": "07601",
    "state": "NJ",
    "city": "Hackensack"
  },
  {
    "name": "Jersey City",
    "fullAddress": "420 Grand St, Jersey City, NJ 07302",
    "address1": "420 Grand St",
    "zip": "07302",
    "state": "NJ",
    "city": "Jersey City"
  },
  {
    "name": "Edison",
    "fullAddress": "561 US Route 1, Edison, NJ 08817",
    "address1": "561 US Route 1",
    "zip": "08817",
    "state": "NJ",
    "city": "Edison"
  },
  {
    "name": "Fairfax",
    "fullAddress": "10780 Fairfax Boulevard, Fairfax, VA 22030",
    "address1": "10780 Fairfax Boulevard",
    "zip": "22030",
    "state": "VA",
    "city": "Fairfax"
  }
]